STARLINK-30707
1 57949U 23148Q   25312.48534203 -.00001189  00000+0 -28027-4 0  9997
2 57949  53.1601 227.3892 0001287  94.8797 265.2351 15.30187848119861